{
  "type": "FeatureCollection",
  "features": [
    {
      "type": "Feature",
      "properties": {
        "norad_id": 30539,
        "name": "FENGYUN 1C DEB",
        "group": "fengyun-1c-debris",
        "lat": -78.93931095728098,
        "lon": 105.20345609559699,
        "alt_km": 638.137467976163,
        "timestamp": "2025-12-23T05:02:12.307624+00:00",
        "meta_object_name": "FENGYUN 1C DEB",
        "meta_object_id": "1999-025AKD",
        "meta_epoch": "2025-12-22T21:13:37.514208",
        "meta_mean_motion": 14.55459081,
        "meta_eccentricity": 0.01152934,
        "meta_inclination": 98.8812,
        "meta_ra_of_asc_node": 337.9773,
        "meta_arg_of_pericenter": 244.6832,
        "meta_mean_anomaly": 114.2385,
        "meta_ephemeris_type": 0,
        "meta_classification_type": "U",
        "meta_norad_cat_id": 30539,
        "meta_element_set_no": 999,
        "meta_rev_at_epoch": 99513,
        "meta_bstar": 0.0006029658,
        "meta_mean_motion_dot": 2.81e-05,
        "meta_mean_motion_ddot": 0,
        "tle_line1": "1 30539U 99025AKD 25356.88446197  .00002810  00000+0  60297-3 0  9990",
        "tle_line2": "2 30539  98.8812 337.9773 0115293 244.6832 114.2385 14.55459081995130"
      },
      "geometry": {
        "type": "Point",
        "coordinates": [
          105.20345609559699,
          -78.93931095728098
        ]
      }
    },
    {
      "type": "Feature",
      "properties": {
        "norad_id": 30540,
        "name": "FENGYUN 1C DEB",
        "group": "fengyun-1c-debris",
        "lat": -38.40800404853037,
        "lon": 112.92027543327484,
        "alt_km": 777.5205370870963,
        "timestamp": "2025-12-23T05:02:12.307635+00:00",
        "meta_object_name": "FENGYUN 1C DEB",
        "meta_object_id": "1999-025AKE",
        "meta_epoch": "2025-12-21T06:31:41.312352",
        "meta_mean_motion": 14.32352224,
        "meta_eccentricity": 0.0050766,
        "meta_inclination": 98.8791,
        "meta_ra_of_asc_node": 103.8175,
        "meta_arg_of_pericenter": 36.6295,
        "meta_mean_anomaly": 18.1633,
        "meta_ephemeris_type": 0,
        "meta_classification_type": "U",
        "meta_norad_cat_id": 30540,
        "meta_element_set_no": 999,
        "meta_rev_at_epoch": 97408,
        "meta_bstar": 0.0013384,
        "meta_mean_motion_dot": 3.624e-05,
        "meta_mean_motion_ddot": 0,
        "tle_line1": "1 30540U 99025AKE 25355.27200593  .00003624  00000+0  13384-2 0  9990",
        "tle_line2": "2 30540  98.8791 103.8175 0050766  36.6295  18.1633 14.32352224974084"
      },
      "geometry": {
        "type": "Point",
        "coordinates": [
          112.92027543327484,
          -38.40800404853037
        ]
      }
    },
    {
      "type": "Feature",
      "properties": {
        "norad_id": 30541,
        "name": "FENGYUN 1C DEB",
        "group": "fengyun-1c-debris",
        "lat": 5.798972667833143,
        "lon": 42.72926034799675,
        "alt_km": 808.7941295205428,
        "timestamp": "2025-12-23T05:02:12.307644+00:00",
        "meta_object_name": "FENGYUN 1C DEB",
        "meta_object_id": "1999-025AKF",
        "meta_epoch": "2025-12-20T19:38:13.351776",
        "meta_mean_motion": 14.23088463,
        "meta_eccentricity": 0.0017777,
        "meta_inclination": 98.6936,
        "meta_ra_of_asc_node": 41.2585,
        "meta_arg_of_pericenter": 62.8985,
        "meta_mean_anomaly": 297.4004,
        "meta_ephemeris_type": 0,
        "meta_classification_type": "U",
        "meta_norad_cat_id": 30541,
        "meta_element_set_no": 999,
        "meta_rev_at_epoch": 97442,
        "meta_bstar": 0.00080306,
        "meta_mean_motion_dot": 1.771e-05,
        "meta_mean_motion_ddot": 0,
        "tle_line1": "1 30541U 99025AKF 25354.81821009  .00001771  00000+0  80306-3 0  9991",
        "tle_line2": "2 30541  98.6936  41.2585 0017777  62.8985 297.4004 14.23088463974429"
      },
      "geometry": {
        "type": "Point",
        "coordinates": [
          42.72926034799675,
          5.798972667833143
        ]
      }
    },
    {
      "type": "Feature",
      "properties": {
        "norad_id": 30542,
        "name": "FENGYUN 1C DEB",
        "group": "fengyun-1c-debris",
        "lat": -12.499521582808562,
        "lon": 27.625115618839125,
        "alt_km": 859.7518853905285,
        "timestamp": "2025-12-23T05:02:12.307655+00:00",
        "meta_object_name": "FENGYUN 1C DEB",
        "meta_object_id": "1999-025AKG",
        "meta_epoch": "2025-12-21T22:56:02.283072",
        "meta_mean_motion": 14.06978758,
        "meta_eccentricity": 0.0027175,
        "meta_inclination": 98.786,
        "meta_ra_of_asc_node": 24.4418,
        "meta_arg_of_pericenter": 307.6212,
        "meta_mean_anomaly": 170.0608,
        "meta_ephemeris_type": 0,
        "meta_classification_type": "U",
        "meta_norad_cat_id": 30542,
        "meta_element_set_no": 999,
        "meta_rev_at_epoch": 97048,
        "meta_bstar": 0.00021056252,
        "meta_mean_motion_dot": 3.09e-06,
        "meta_mean_motion_ddot": 0,
        "tle_line1": "1 30542U 99025AKG 25355.95558198  .00000309  00000+0  21056-3 0  9997",
        "tle_line2": "2 30542  98.7860  24.4418 0027175 307.6212 170.0608 14.06978758970485"
      },
      "geometry": {
        "type": "Point",
        "coordinates": [
          27.625115618839125,
          -12.499521582808562
        ]
      }
    },
    {
      "type": "Feature",
      "properties": {
        "norad_id": 30543,
        "name": "FENGYUN 1C DEB",
        "group": "fengyun-1c-debris",
        "lat": -58.216769862121,
        "lon": 21.01285860374186,
        "alt_km": 864.4947477174219,
        "timestamp": "2025-12-23T05:02:12.307665+00:00",
        "meta_object_name": "FENGYUN 1C DEB",
        "meta_object_id": "1999-025AKH",
        "meta_epoch": "2025-12-22T19:54:19.015200",
        "meta_mean_motion": 14.03750113,
        "meta_eccentricity": 0.00721814,
        "meta_inclination": 98.8329,
        "meta_ra_of_asc_node": 6.1095,
        "meta_arg_of_pericenter": 5.6263,
        "meta_mean_anomaly": 174.1509,
        "meta_ephemeris_type": 0,
        "meta_classification_type": "U",
        "meta_norad_cat_id": 30543,
        "meta_element_set_no": 999,
        "meta_rev_at_epoch": 96646,
        "meta_bstar": 0.00013970702,
        "meta_mean_motion_dot": 1.82e-06,
        "meta_mean_motion_ddot": 0,
        "tle_line1": "1 30543U 99025AKH 25356.82938675  .00000182  00000+0  13971-3 0  9993",
        "tle_line2": "2 30543  98.8329   6.1095 0072181   5.6263 174.1509 14.03750113966461"
      },
      "geometry": {
        "type": "Point",
        "coordinates": [
          21.01285860374186,
          -58.216769862121
        ]
      }
    },
    {
      "type": "Feature",
      "properties": {
        "norad_id": 30545,
        "name": "FENGYUN 1C DEB",
        "group": "fengyun-1c-debris",
        "lat": 48.905544481500016,
        "lon": -162.50351541267491,
        "alt_km": 1008.40622650363,
        "timestamp": "2025-12-23T05:02:12.307697+00:00",
        "meta_object_name": "FENGYUN 1C DEB",
        "meta_object_id": "1999-025AKK",
        "meta_epoch": "2025-12-16T01:55:01.765920",
        "meta_mean_motion": 13.20785031,
        "meta_eccentricity": 0.04726799,
        "meta_inclination": 98.9986,
        "meta_ra_of_asc_node": 201.8152,
        "meta_arg_of_pericenter": 2.8282,
        "meta_mean_anomaly": 357.5348,
        "meta_ephemeris_type": 0,
        "meta_classification_type": "U",
        "meta_norad_cat_id": 30545,
        "meta_element_set_no": 999,
        "meta_rev_at_epoch": 90974,
        "meta_bstar": 0.00057440201,
        "meta_mean_motion_dot": 3.84e-06,
        "meta_mean_motion_ddot": 0,
        "tle_line1": "1 30545U 99025AKK 25350.07988155  .00000384  00000+0  57440-3 0  9997",
        "tle_line2": "2 30545  98.9986 201.8152 0472679   2.8282 357.5348 13.20785031909748"
      },
      "geometry": {
        "type": "Point",
        "coordinates": [
          -162.50351541267491,
          48.905544481500016
        ]
      }
    },
    {
      "type": "Feature",
      "properties": {
        "norad_id": 30546,
        "name": "FENGYUN 1C DEB",
        "group": "fengyun-1c-debris",
        "lat": -48.85918196585047,
        "lon": -135.15868661194952,
        "alt_km": 678.0657975053,
        "timestamp": "2025-12-23T05:02:12.307711+00:00",
        "meta_object_name": "FENGYUN 1C DEB",
        "meta_object_id": "1999-025AKL",
        "meta_epoch": "2025-12-22T10:25:49.355328",
        "meta_mean_motion": 14.87288453,
        "meta_eccentricity": 0.00928562,
        "meta_inclination": 98.9075,
        "meta_ra_of_asc_node": 213.63,
        "meta_arg_of_pericenter": 131.5867,
        "meta_mean_anomaly": 350.353,
        "meta_ephemeris_type": 0,
        "meta_classification_type": "U",
        "meta_norad_cat_id": 30546,
        "meta_element_set_no": 999,
        "meta_rev_at_epoch": 601,
        "meta_bstar": 0.00085401584,
        "meta_mean_motion_dot": 8.271e-05,
        "meta_mean_motion_ddot": 0,
        "tle_line1": "1 30546U 99025AKL 25356.43459902  .00008271  00000+0  85402-3 0  9999",
        "tle_line2": "2 30546  98.9075 213.6300 0092856 131.5867 350.3530 14.87288453  6010"
      },
      "geometry": {
        "type": "Point",
        "coordinates": [
          -135.15868661194952,
          -48.85918196585047
        ]
      }
    }
  ]
}